NORAD_CAT_ID,OBJECT_NAME,OBJECT_TYPE,EPOCH,MEAN_MOTION,ECCENTRICITY,INCLINATION,RA_OF_ASC_NODE,ARG_OF_PERICENTER,MEAN_ANOMALY,BSTAR,MEAN_MOTION_DOT,MEAN_MOTION_DDOT,TLE_LINE0,TLE_LINE1,TLE_LINE2,SEMIMAJOR_AXIS,PERIOD,APOGEE,PERIGEE,DECAYED
56790.0,STARLINK-6345,PAYLOAD,2024-03-19 01:45:39,14.9917058,0.0002939,69.9997,321.4405,264.6396,95.4429,-0.00050584,-6.257e-05,0.0,0 STARLINK-6345,1 56790U 23078Z   24079.07337241 -.00006257  00000-0 -50584-3 0  9993,2 56790  69.9997 321.4405 0002939 264.6396  95.4429 14.99170580 45721,6947.595,96.053,571.502,567.418,0.0
56790.0,STARLINK-6345,PAYLOAD,2024-03-19 20:58:38,14.99144542,0.0002976,69.9993,319.4196,268.399,91.6829,6.3057e-05,6.75e-06,0.0,0 STARLINK-6345,1 56790U 23078Z   24079.87406089  .00000675  00000-0  63057-4 0  9994,2 56790  69.9993 319.4196 0002976 268.3990  91.6829 14.99144542 46107,6947.675,96.055,571.608,567.472,0.0
56790.0,STARLINK-6345,PAYLOAD,2024-03-20 01:46:53,14.99147947,0.0002973,69.9992,318.9142,269.8175,90.2644,9.6881e-05,1.087e-05,0.0,0 STARLINK-6345,1 56790U 23078Z   24080.07422886  .00001087  00000-0  96881-4 0  9990,2 56790  69.9992 318.9142 0002973 269.8175  90.2644 14.99147947 45874,6947.665,96.055,571.595,567.464,0.0
56790.0,STARLINK-6345,PAYLOAD,2024-03-20 20:59:54,14.99134122,0.0002896,69.9991,316.8924,270.8191,89.2637,-0.00010358,-1.355e-05,0.0,0 STARLINK-6345,1 56790U 23078Z   24080.87493234 -.00001355  00000-0 -10358-3 0  9997,2 56790  69.9991 316.8924 0002896 270.8191  89.2637 14.99134122 46256,6947.707,96.055,571.584,567.56,0.0
56790.0,STARLINK-6345,PAYLOAD,2024-03-20 22:35:59,14.99134597,0.0002915,69.9989,316.7238,270.1702,89.9123,-9.497e-05,-1.251e-05,0.0,0 STARLINK-6345,1 56790U 23078Z   24080.94165577 -.00001251  00000-0 -94970-4 0  9999,2 56790  69.9989 316.7238 0002915 270.1702  89.9123 14.99134597 46009,6947.706,96.055,571.596,567.546,0.0
56790.0,STARLINK-6345,PAYLOAD,2024-03-21 01:48:11,14.99105394,0.00029,69.9986,316.3868,272.7926,87.2902,-0.00040358,-5.003e-05,0.0,0 STARLINK-6345,1 56790U 23078Z   24081.07513124 -.00005003  00000-0 -40358-3 0  9998,2 56790  69.9986 316.3868 0002900 272.7926  87.2902 14.99105394 46280,6947.796,96.057,571.676,567.646,0.0
56790.0,STARLINK-6345,PAYLOAD,2024-03-21 14:36:50,14.99115027,0.0003493,69.9987,315.0392,270.8452,89.2307,-0.0003131,-3.904e-05,0.0,0 STARLINK-6345,1 56790U 23078Z   24081.60892015 -.00003904  00000-0 -31310-3 0  9992,2 56790  69.9987 315.0392 0003493 270.8452  89.2307 14.99115027 46106,6947.766,96.057,572.058,567.204,0.0
56790.0,STARLINK-6345,PAYLOAD,2024-03-21 19:25:04,14.99125968,0.0002649,69.9993,314.5352,264.6847,95.4011,-0.00018024,-2.288e-05,0.0,0 STARLINK-6345,1 56790U 23078Z   24081.80908416 -.00002288  00000-0 -18024-3 0  9998,2 56790  69.9993 314.5352 0002649 264.6847  95.4011 14.99125968 46391,6947.733,96.056,571.438,567.757,0.0
56790.0,STARLINK-6345,PAYLOAD,2024-03-21 22:37:14,14.99130813,0.0002376,69.9994,314.1977,252.1049,107.9852,-0.00012192,-1.578e-05,0.0,0 STARLINK-6345,1 56790U 23078Z   24081.94252784 -.00001578  00000-0 -12192-3 0  9994,2 56790  69.9994 314.1977 0002376 252.1049 107.9852 14.99130813 46155,6947.718,96.056,571.233,567.932,0.0
56790.0,STARLINK-6345,PAYLOAD,2024-03-22 01:49:23,14.99136569,0.0002697,69.9987,313.8601,265.9177,94.1674,-5.7721e-05,-7.97e-06,0.0,0 STARLINK-6345,1 56790U 23078Z   24082.07597129 -.00000797  00000-0 -57721-4 0  9994,2 56790  69.9987 313.8601 0002697 265.9177  94.1674 14.99136569 46431,6947.7,96.055,571.439,567.691,0.0
56790.0,STARLINK-6345,PAYLOAD,2024-03-22 21:02:54,14.98784894,0.0003397,69.9979,311.8391,282.4426,77.6353,-0.0034652,-0.00041683,0.0,0 STARLINK-6345,1 56790U 23078Z   24082.87702399 -.00041683  00000-0 -34652-2 0  9994,2 56790  69.9979 311.8391 0003397 282.4426  77.6353 14.98784894 46557,6948.787,96.078,573.012,568.291,0.0
56790.0,STARLINK-6345,PAYLOAD,2024-03-22 22:39:03,14.98752121,0.0003382,69.9981,311.671,288.4034,71.6757,-0.0037597,-0.00045157,0.0,0 STARLINK-6345,1 56790U 23078Z   24082.94379154 -.00045157  00000-0 -37597-2 0  9992,2 56790  69.9981 311.6710 0003382 288.4034  71.6757 14.98752121 46301,6948.888,96.08,573.103,568.403,0.0
56790.0,STARLINK-6345,PAYLOAD,2024-03-23 00:15:13,14.98703301,0.000303,69.9978,311.502,268.9777,91.1035,-0.0042455,-0.00050873,0.0,0 STARLINK-6345,1 56790U 23078Z   24083.01057181 -.00050873  00000-0 -42455-2 0  9994,2 56790  69.9978 311.5020 0003030 268.9777  91.1035 14.98703301 46578,6949.039,96.083,573.009,568.798,0.0
56790.0,STARLINK-6345,PAYLOAD,2024-03-23 21:04:45,14.98612165,0.0002612,69.998,309.314,260.7512,99.3352,-0.0042378,-0.00050661,0.0,0 STARLINK-6345,1 56790U 23078Z   24083.87830632 -.00050661  00000-0 -42378-2 0  9997,2 56790  69.9980 309.3140 0002612 260.7512  99.3352 14.98612165 46705,6949.32,96.089,573.001,569.37,0.0
56790.0,STARLINK-6345,PAYLOAD,2024-03-24 14:42:06,14.98415876,0.0003145,69.9977,307.4622,270.3945,89.6854,-0.001135,-0.0001364,0.0,0 STARLINK-6345,1 56790U 23078Z   24084.61257238 -.00013640  00000-0 -11350-2 0  9997,2 56790  69.9977 307.4622 0003145 270.3945  89.6854 14.98415876 46556,6949.927,96.101,573.978,569.607,0.0
56790.0,STARLINK-6345,PAYLOAD,2024-03-24 21:06:36,14.98417652,0.0002813,69.9977,306.7887,259.6587,100.4255,-0.0010215,-0.00012288,0.0,0 STARLINK-6345,1 56790U 23078Z   24084.87959467 -.00012288  00000-0 -10215-2 0  9994,2 56790  69.9977 306.7887 0002813 259.6587 100.4255 14.98417652 46858,6949.922,96.101,573.742,569.832,0.0
56790.0,STARLINK-6345,PAYLOAD,2024-03-24 22:42:44,14.98416358,0.0003047,69.9977,306.6196,267.3836,92.6974,-0.00099093,-0.00011923,0.0,0 STARLINK-6345,1 56790U 23078Z   24084.94635155 -.00011923  00000-0 -99093-3 0  9994,2 56790  69.9977 306.6196 0003047 267.3836  92.6974 14.98416358 46608,6949.926,96.101,573.908,569.673,0.0
56790.0,STARLINK-6345,PAYLOAD,2024-03-25 08:19:34,14.98342493,0.0003006,69.9985,305.6088,275.8107,84.271,1.7558e-05,1.17e-06,0.0,0 STARLINK-6345,1 56790U 23078Z   24085.34692139  .00000117  00000-0  17558-4 0  9992,2 56790  69.9985 305.6088 0003006 275.8107  84.2710 14.98342493 46924,6950.154,96.106,574.108,569.93,0.0
56790.0,STARLINK-6345,PAYLOAD,2024-03-25 20:00:01,14.98360945,0.0003156,69.9995,304.384,274.1447,188.9159,-0.0050196,-0.00059529,0.0,0 STARLINK-6345,1 56790U 23078Z   24085.83334491 -.00059529  00000-0 -50196-2 0  9996,2 56790  69.9995 304.3840 0003156 274.1447 188.9159 14.98360945 46990,6950.097,96.105,574.156,569.769,0.0
56790.0,STARLINK-6345,PAYLOAD,2024-03-25 22:00:00,14.98347204,0.0003135,69.9995,304.1738,275.4444,276.9955,-0.0038926,-0.00046255,0.0,0 STARLINK-6345,1 56790U 23078Z   24085.91667824 -.00046255  00000-0 -38926-2 0  9993,2 56790  69.9995 304.1738 0003135 275.4444 276.9955 14.98347204  5802,6950.14,96.106,574.184,569.826,0.0
56790.0,STARLINK-6345,PAYLOAD,2024-03-26 13:10:00,14.98325977,0.0003039,69.9989,302.5801,272.4708,87.6103,-0.00011738,-1.493e-05,0.0,0 STARLINK-6345,1 56790U 23078Z   24086.54861774 -.00001493  00000-0 -11738-3 0  9991,2 56790  69.9989 302.5801 0003039 272.4708  87.6103 14.98325977 47105,6950.205,96.107,574.182,569.958,0.0
56790.0,STARLINK-6345,PAYLOAD,2024-03-26 14:46:08,14.98328507,0.0002894,69.9989,302.4117,273.4164,86.6664,-0.00016263,-2.033e-05,0.0,0 STARLINK-6345,1 56790U 23078Z   24086.61537795 -.00002033  00000-0 -16263-3 0  9991,2 56790  69.9989 302.4117 0002894 273.4164  86.6664 14.98328507 46853,6950.198,96.107,574.074,570.051,0.0
56790.0,STARLINK-6345,PAYLOAD,2024-03-26 22:46:48,14.98331809,0.0002831,69.9985,301.57,272.5864,87.4971,-0.00018699,-2.323e-05,0.0,0 STARLINK-6345,1 56790U 23078Z   24086.94917650 -.00002323  00000-0 -18699-3 0  9996,2 56790  69.9985 301.5700 0002831 272.5864  87.4971 14.98331809 46900,6950.187,96.107,574.02,570.085,0.0
56790.0,STARLINK-6345,PAYLOAD,2024-03-27 13:12:01,14.98325237,0.0002904,69.9987,300.055,275.8014,84.2814,5.2204e-05,5.3e-06,0.0,0 STARLINK-6345,1 56790U 23078Z   24087.55001340  .00000530  00000-0  52204-4 0  9991,2 56790  69.9987 300.0550 0002904 275.8014  84.2814 14.98325237 47251,6950.208,96.107,574.091,570.054,0.0
56790.0,STARLINK-6345,PAYLOAD,2024-03-27 14:48:09,14.98326065,0.0002908,69.9986,299.8867,275.7673,84.3154,6.0676e-05,6.31e-06,0.0,0 STARLINK-6345,1 56790U 23078Z   24087.61677274  .00000631  00000-0  60676-4 0  9997,2 56790  69.9986 299.8867 0002908 275.7673  84.3154 14.98326065 47001,6950.205,96.107,574.091,570.049,0.0
56790.0,STARLINK-6345,PAYLOAD,2024-03-27 21:12:41,14.98326839,0.0002912,69.9989,299.2135,275.6341,84.4486,6.2353e-05,6.51e-06,0.0,0 STARLINK-6345,1 56790U 23078Z   24087.88381279  .00000651  00000-0  62353-4 0  9999,2 56790  69.9989 299.2135 0002912 275.6341  84.4486 14.98326839 47044,6950.203,96.107,574.092,570.044,0.0
56790.0,STARLINK-6345,PAYLOAD,2024-03-28 06:49:29,14.98350507,0.0003073,69.9989,298.2034,278.205,81.876,-0.00028888,-3.54e-05,0.0,0 STARLINK-6345,1 56790U 23078Z   24088.28436524 -.00003540  00000-0 -28888-3 0  9994,2 56790  69.9989 298.2034 0003073 278.2050  81.8760 14.98350507 47366,6950.129,96.106,574.13,569.859,0.0
56790.0,STARLINK-6345,PAYLOAD,2024-03-28 22:50:50,14.98329456,0.0002941,69.999,296.5206,272.8944,87.1879,0.0001255,1.405e-05,0.0,0 STARLINK-6345,1 56790U 23078Z   24088.95196957  .00001405  00000-0  12550-3 0  9996,2 56790  69.9990 296.5206 0002941 272.8944  87.1879 14.98329456 47207,6950.195,96.107,574.104,570.016,0.0
56790.0,STARLINK-6345,PAYLOAD,2024-03-29 13:16:02,14.98333235,0.0002848,69.9997,295.0055,269.9268,90.1565,-1.1044e-05,-2.25e-06,0.0,0 STARLINK-6345,1 56790U 23078Z   24089.55280981 -.00000225  00000-0 -11044-4 0  9993,2 56790  69.9997 295.0055 0002848 269.9268  90.1565 14.98333235 47297,6950.183,96.107,574.027,570.068,0.0
56790.0,STARLINK-6345,PAYLOAD,2024-03-29 22:52:51,14.98331636,0.0002918,69.9996,293.9955,270.1817,89.9008,-3.1641e-05,-4.71e-06,0.0,0 STARLINK-6345,1 56790U 23078Z   24089.95337041 -.00000471  00000-0 -31641-4 0  9995,2 56790  69.9996 293.9955 0002918 270.1817  89.9008 14.98331636 47352,6950.188,96.107,574.081,570.025,0.0
